{"fetched_at":"2026-07-23T07:05:18.920Z","source":"https://celestrak.org/NORAD/elements/gp.php?GROUP=oneweb&FORMAT=JSON","constellation":"oneweb","records":[{"OBJECT_NAME":"ONEWEB-0224","OBJECT_ID":"2021-045AD","EPOCH":"2026-07-22T03:39:53.817408","CLASSIFICATION_TYPE":"U","MEAN_MOTION":13.15549115,"ECCENTRICITY":0.00029165,"INCLINATION":87.8977,"RA_OF_ASC_NODE":252.2598,"ARG_OF_PERICENTER":91.158,"MEAN_ANOMALY":268.9885,"EPHEMERIS_TYPE":0,"NORAD_CAT_ID":48794,"ELEMENT_SET_NO":999,"REV_AT_EPOCH":24887,"BSTAR":-0.00019144618,"MEAN_MOTION_DOT":-5.9e-7,"MEAN_MOTION_DDOT":0},{"OBJECT_NAME":"ONEWEB-0233","OBJECT_ID":"2021-045AE","EPOCH":"2026-07-22T22:01:44.762880","CLASSIFICATION_TYPE":"U","MEAN_MOTION":13.15548122,"ECCENTRICITY":0.00023173,"INCLINATION":87.8975,"RA_OF_ASC_NODE":252.1145,"ARG_OF_PERICENTER":100.503,"MEAN_ANOMALY":259.6362,"EPHEMERIS_TYPE":0,"NORAD_CAT_ID":48795,"ELEMENT_SET_NO":999,"REV_AT_EPOCH":24899,"BSTAR":-0.00074582285,"MEAN_MOTION_DOT":-0.00000268,"MEAN_MOTION_DDOT":0},{"OBJECT_NAME":"ONEWEB-0190","OBJECT_ID":"2021-045AF","EPOCH":"2026-07-22T19:54:11.203776","CLASSIFICATION_TYPE":"U","MEAN_MOTION":13.15549086,"ECCENTRICITY":0.00024249,"INCLINATION":87.8984,"RA_OF_ASC_NODE":252.0964,"ARG_OF_PERICENTER":111.4097,"MEAN_ANOMALY":248.7293,"EPHEMERIS_TYPE":0,"NORAD_CAT_ID":48796,"ELEMENT_SET_NO":999,"REV_AT_EPOCH":24905,"BSTAR":0.000095030834,"MEAN_MOTION_DOT":4.9e-7,"MEAN_MOTION_DDOT":0},{"OBJECT_NAME":"ONEWEB-0236","OBJECT_ID":"2021-045AG","EPOCH":"2026-07-22T20:19:17.414976","CLASSIFICATION_TYPE":"U","MEAN_MOTION":13.1554883,"ECCENTRICITY":0.00020766,"INCLINATION":87.8974,"RA_OF_ASC_NODE":252.1,"ARG_OF_PERICENTER":92.6366,"MEAN_ANOMALY":267.5002,"EPHEMERIS_TYPE":0,"NORAD_CAT_ID":48797,"ELEMENT_SET_NO":999,"REV_AT_EPOCH":24894,"BSTAR":-0.00022108765,"MEAN_MOTION_DOT":-7e-7,"MEAN_MOTION_DDOT":0},{"OBJECT_NAME":"ONEWEB-0248","OBJECT_ID":"2021-045AH","EPOCH":"2026-07-22T13:19:26.364000","CLASSIFICATION_TYPE":"U","MEAN_MOTION":13.15549222,"ECCENTRICITY":0.00025106,"INCLINATION":87.8982,"RA_OF_ASC_NODE":252.1452,"ARG_OF_PERICENTER":102.3245,"MEAN_ANOMALY":257.8166,"EPHEMERIS_TYPE":0,"NORAD_CAT_ID":48798,"ELEMENT_SET_NO":999,"REV_AT_EPOCH":24906,"BSTAR":-0.00019152277,"MEAN_MOTION_DOT":-5.9e-7,"MEAN_MOTION_DDOT":0},{"OBJECT_NAME":"ONEWEB-0225","OBJECT_ID":"2021-045AJ","EPOCH":"2026-07-22T21:09:29.706048","CLASSIFICATION_TYPE":"U","MEAN_MOTION":13.15548159,"ECCENTRICITY":0.00023882,"INCLINATION":87.8979,"RA_OF_ASC_NODE":252.0869,"ARG_OF_PERICENTER":109.1952,"MEAN_ANOMALY":250.9437,"EPHEMERIS_TYPE":0,"NORAD_CAT_ID":48799,"ELEMENT_SET_NO":999,"REV_AT_EPOCH":24911,"BSTAR":0.00019876692,"MEAN_MOTION_DOT":8.8e-7,"MEAN_MOTION_DDOT":0},{"OBJECT_NAME":"ONEWEB-0215","OBJECT_ID":"2021-045AK","EPOCH":"2026-07-22T20:26:06.982944","CLASSIFICATION_TYPE":"U","MEAN_MOTION":13.155498,"ECCENTRICITY":0.00025726,"INCLINATION":87.8988,"RA_OF_ASC_NODE":252.0775,"ARG_OF_PERICENTER":108.3502,"MEAN_ANOMALY":251.7908,"EPHEMERIS_TYPE":0,"NORAD_CAT_ID":48800,"ELEMENT_SET_NO":999,"REV_AT_EPOCH":24898,"BSTAR":-0.0003031219,"MEAN_MOTION_DOT":-0.00000101,"MEAN_MOTION_DDOT":0},{"OBJECT_NAME":"ONEWEB-0216","OBJECT_ID":"2021-045AL","EPOCH":"2026-07-22T13:21:44.272224","CLASSIFICATION_TYPE":"U","MEAN_MOTION":13.15548016,"ECCENTRICITY":0.00019883,"INCLINATION":87.8979,"RA_OF_ASC_NODE":252.1495,"ARG_OF_PERICENTER":97.0534,"MEAN_ANOMALY":263.0822,"EPHEMERIS_TYPE":0,"NORAD_CAT_ID":48801,"ELEMENT_SET_NO":999,"REV_AT_EPOCH":24895,"BSTAR":-0.00012952316,"MEAN_MOTION_DOT":-3.6e-7,"MEAN_MOTION_DDOT":0},{"OBJECT_NAME":"ONEWEB-0239","OBJECT_ID":"2021-045AM","EPOCH":"2026-07-22T13:28:35.307264","CLASSIFICATION_TYPE":"U","MEAN_MOTION":13.15547997,"ECCENTRICITY":0.00028227,"INCLINATION":87.8976,"RA_OF_ASC_NODE":252.1525,"ARG_OF_PERICENTER":105.5883,"MEAN_ANOMALY":254.5559,"EPHEMERIS_TYPE":0,"NORAD_CAT_ID":48802,"ELEMENT_SET_NO":999,"REV_AT_EPOCH":24899,"BSTAR":-0.0001223708,"MEAN_MOTION_DOT":-3.3e-7,"MEAN_MOTION_DDOT":0},{"OBJECT_NAME":"ONEWEB-0249","OBJECT_ID":"2021-060A","EPOCH":"2026-07-22T18:30:53.680032","CLASSIFICATION_TYPE":"U","MEAN_MOTION":13.16592533,"ECCENTRICITY":0.00021816,"INCLINATION":87.9078,"RA_OF_ASC_NODE":221.7092,"ARG_OF_PERICENTER":93.3955,"MEAN_ANOMALY":266.7425,"EPHEMERIS_TYPE":0,"NORAD_CAT_ID":48967,"ELEMENT_SET_NO":999,"REV_AT_EPOCH":24429,"BSTAR":-0.0001154235,"MEAN_MOTION_DOT":-3.1e-7,"MEAN_MOTION_DDOT":0},{"OBJECT_NAME":"ONEWEB-0250","OBJECT_ID":"2021-060B","EPOCH":"2026-07-22T18:39:23.624064","CLASSIFICATION_TYPE":"U","MEAN_MOTION":13.25835303,"ECCENTRICITY":0.00029289,"INCLINATION":87.9076,"RA_OF_ASC_NODE":219.348,"ARG_OF_PERICENTER":79.2534,"MEAN_ANOMALY":280.8932,"EPHEMERIS_TYPE":0,"NORAD_CAT_ID":48968,"ELEMENT_SET_NO":999,"REV_AT_EPOCH":24493,"BSTAR":-0.000003187188,"MEAN_MOTION_DOT":1.2e-7,"MEAN_MOTION_DDOT":0},{"OBJECT_NAME":"ONEWEB-0252","OBJECT_ID":"2021-060D","EPOCH":"2026-07-22T11:57:36.775584","CLASSIFICATION_TYPE":"U","MEAN_MOTION":13.16596351,"ECCENTRICITY":0.00017799,"INCLINATION":87.9079,"RA_OF_ASC_NODE":221.7562,"ARG_OF_PERICENTER":97.4809,"MEAN_ANOMALY":262.6524,"EPHEMERIS_TYPE":0,"NORAD_CAT_ID":48970,"ELEMENT_SET_NO":999,"REV_AT_EPOCH":24430,"BSTAR":0.00032864241,"MEAN_MOTION_DOT":0.00000138,"MEAN_MOTION_DDOT":0},{"OBJECT_NAME":"ONEWEB-0253","OBJECT_ID":"2021-060E","EPOCH":"2026-07-22T18:59:23.907552","CLASSIFICATION_TYPE":"U","MEAN_MOTION":13.16595292,"ECCENTRICITY":0.00021848,"INCLINATION":87.9074,"RA_OF_ASC_NODE":221.7029,"ARG_OF_PERICENTER":91.8467,"MEAN_ANOMALY":268.2914,"EPHEMERIS_TYPE":0,"NORAD_CAT_ID":48971,"ELEMENT_SET_NO":999,"REV_AT_EPOCH":24427,"BSTAR":0.00010511579,"MEAN_MOTION_DOT":5.3e-7,"MEAN_MOTION_DDOT":0},{"OBJECT_NAME":"ONEWEB-0254","OBJECT_ID":"2021-060F","EPOCH":"2026-07-22T19:13:05.814336","CLASSIFICATION_TYPE":"U","MEAN_MOTION":13.16594308,"ECCENTRICITY":0.0002345,"INCLINATION":87.9077,"RA_OF_ASC_NODE":221.6994,"ARG_OF_PERICENTER":96.2362,"MEAN_ANOMALY":263.9036,"EPHEMERIS_TYPE":0,"NORAD_CAT_ID":48972,"ELEMENT_SET_NO":999,"REV_AT_EPOCH":24427,"BSTAR":0.00016502275,"MEAN_MOTION_DOT":7.6e-7,"MEAN_MOTION_DDOT":0},{"OBJECT_NAME":"ONEWEB-0255","OBJECT_ID":"2021-060G","EPOCH":"2026-07-22T07:21:45.818784","CLASSIFICATION_TYPE":"U","MEAN_MOTION":13.16594408,"ECCENTRICITY":0.00022012,"INCLINATION":87.908,"RA_OF_ASC_NODE":221.8037,"ARG_OF_PERICENTER":95.9522,"MEAN_ANOMALY":264.1859,"EPHEMERIS_TYPE":0,"NORAD_CAT_ID":48973,"ELEMENT_SET_NO":999,"REV_AT_EPOCH":24428,"BSTAR":-0.000016997556,"MEAN_MOTION_DOT":6e-8,"MEAN_MOTION_DDOT":0},{"OBJECT_NAME":"ONEWEB-0256","OBJECT_ID":"2021-060H","EPOCH":"2026-07-22T18:56:00.163392","CLASSIFICATION_TYPE":"U","MEAN_MOTION":13.16595069,"ECCENTRICITY":0.00019529,"INCLINATION":87.9064,"RA_OF_ASC_NODE":221.71,"ARG_OF_PERICENTER":93.8197,"MEAN_ANOMALY":266.3157,"EPHEMERIS_TYPE":0,"NORAD_CAT_ID":48974,"ELEMENT_SET_NO":999,"REV_AT_EPOCH":24431,"BSTAR":-0.00024291662,"MEAN_MOTION_DOT":-8e-7,"MEAN_MOTION_DDOT":0},{"OBJECT_NAME":"ONEWEB-0257","OBJECT_ID":"2021-060J","EPOCH":"2026-07-22T10:35:33.437472","CLASSIFICATION_TYPE":"U","MEAN_MOTION":13.16594381,"ECCENTRICITY":0.00020778,"INCLINATION":87.9078,"RA_OF_ASC_NODE":221.7677,"ARG_OF_PERICENTER":96.3878,"MEAN_ANOMALY":263.7489,"EPHEMERIS_TYPE":0,"NORAD_CAT_ID":48975,"ELEMENT_SET_NO":999,"REV_AT_EPOCH":24422,"BSTAR":0.00014023005,"MEAN_MOTION_DOT":6.6e-7,"MEAN_MOTION_DDOT":0},{"OBJECT_NAME":"ONEWEB-0258","OBJECT_ID":"2021-060K","EPOCH":"2026-07-22T10:37:48.553248","CLASSIFICATION_TYPE":"U","MEAN_MOTION":13.16593048,"ECCENTRICITY":0.00021267,"INCLINATION":87.9081,"RA_OF_ASC_NODE":221.7799,"ARG_OF_PERICENTER":93.947,"MEAN_ANOMALY":266.1905,"EPHEMERIS_TYPE":0,"NORAD_CAT_ID":48976,"ELEMENT_SET_NO":999,"REV_AT_EPOCH":24423,"BSTAR":0.00013749356,"MEAN_MOTION_DOT":6.5e-7,"MEAN_MOTION_DDOT":0},{"OBJECT_NAME":"ONEWEB-0259","OBJECT_ID":"2021-060L","EPOCH":"2026-07-22T19:35:53.716416","CLASSIFICATION_TYPE":"U","MEAN_MOTION":13.16594348,"ECCENTRICITY":0.00022289,"INCLINATION":87.9077,"RA_OF_ASC_NODE":221.7044,"ARG_OF_PERICENTER":92.7129,"MEAN_ANOMALY":267.4257,"EPHEMERIS_TYPE":0,"NORAD_CAT_ID":48977,"ELEMENT_SET_NO":999,"REV_AT_EPOCH":24431,"BSTAR":0.00016738972,"MEAN_MOTION_DOT":7.7e-7,"MEAN_MOTION_DDOT":0},{"OBJECT_NAME":"ONEWEB-0260","OBJECT_ID":"2021-060M","EPOCH":"2026-07-22T19:23:19.861728","CLASSIFICATION_TYPE":"U","MEAN_MOTION":13.16592993,"ECCENTRICITY":0.00016718,"INCLINATION":87.9067,"RA_OF_ASC_NODE":221.7059,"ARG_OF_PERICENTER":97.5635,"MEAN_ANOMALY":262.5686,"EPHEMERIS_TYPE":0,"NORAD_CAT_ID":48978,"ELEMENT_SET_NO":999,"REV_AT_EPOCH":24429,"BSTAR":0.00018731279,"MEAN_MOTION_DOT":8.4e-7,"MEAN_MOTION_DDOT":0},{"OBJECT_NAME":"ONEWEB-0261","OBJECT_ID":"2021-060N","EPOCH":"2026-07-22T11:22:18.179328","CLASSIFICATION_TYPE":"U","MEAN_MOTION":13.16593949,"ECCENTRICITY":0.00021459,"INCLINATION":87.9075,"RA_OF_ASC_NODE":221.7736,"ARG_OF_PERICENTER":101.3468,"MEAN_ANOMALY":258.7904,"EPHEMERIS_TYPE":0,"NORAD_CAT_ID":48979,"ELEMENT_SET_NO":999,"REV_AT_EPOCH":24430,"BSTAR":-0.000040011644,"MEAN_MOTION_DOT":-2e-8,"MEAN_MOTION_DDOT":0},{"OBJECT_NAME":"ONEWEB-0262","OBJECT_ID":"2021-060P","EPOCH":"2026-07-22T18:11:32.707680","CLASSIFICATION_TYPE":"U","MEAN_MOTION":13.16589863,"ECCENTRICITY":0.00028475,"INCLINATION":87.911,"RA_OF_ASC_NODE":221.705,"ARG_OF_PERICENTER":92.3851,"MEAN_ANOMALY":267.7606,"EPHEMERIS_TYPE":0,"NORAD_CAT_ID":48980,"ELEMENT_SET_NO":999,"REV_AT_EPOCH":24430,"BSTAR":-0.00081576517,"MEAN_MOTION_DOT":-0.00000299,"MEAN_MOTION_DDOT":0},{"OBJECT_NAME":"ONEWEB-0263","OBJECT_ID":"2021-060Q","EPOCH":"2026-07-22T18:57:08.047872","CLASSIFICATION_TYPE":"U","MEAN_MOTION":13.16594276,"ECCENTRICITY":0.00022837,"INCLINATION":87.9075,"RA_OF_ASC_NODE":221.7093,"ARG_OF_PERICENTER":100.0688,"MEAN_ANOMALY":260.07,"EPHEMERIS_TYPE":0,"NORAD_CAT_ID":48981,"ELEMENT_SET_NO":999,"REV_AT_EPOCH":24427,"BSTAR":-0.000039767558,"MEAN_MOTION_DOT":-2e-8,"MEAN_MOTION_DDOT":0}]}
